NORAD_CAT_ID,OBJECT_NAME,OBJECT_TYPE,EPOCH,MEAN_MOTION,ECCENTRICITY,INCLINATION,RA_OF_ASC_NODE,ARG_OF_PERICENTER,MEAN_ANOMALY,BSTAR,MEAN_MOTION_DOT,MEAN_MOTION_DDOT,TLE_LINE0,TLE_LINE1,TLE_LINE2,SEMIMAJOR_AXIS,PERIOD,APOGEE,PERIGEE,DECAYED
53985.0,STARLINK-5147,PAYLOAD,2024-06-03 11:13:48,15.08838766,0.0001171,53.2154,226.3794,88.9162,271.1964,0.00010475,1.38e-05,0.0,0 STARLINK-5147,1 53985U 22125X   24155.46791822  .00001380  00000-0  10475-3 0  9990,2 53985  53.2154 226.3794 0001171  88.9162 271.1964 15.08838766 92204,6917.884,95.438,540.559,538.939,0.0
53985.0,STARLINK-5147,PAYLOAD,2024-06-03 22:21:29,15.08843415,0.0001243,53.2163,224.2977,89.1551,270.9584,8.5223e-05,1.069e-05,0.0,0 STARLINK-5147,1 53985U 22125X   24155.93159571  .00001069  00000-0  85223-4 0  9999,2 53985  53.2163 224.2977 0001243  89.1551 270.9584 15.08843415 92278,6917.87,95.437,540.595,538.875,0.0
53985.0,STARLINK-5147,PAYLOAD,2024-06-04 04:43:02,15.08833246,0.0001323,53.2168,223.1082,96.2943,263.82,0.00015243,2.138e-05,0.0,0 STARLINK-5147,1 53985U 22125X   24156.19656066  .00002138  00000-0  15243-3 0  9991,2 53985  53.2168 223.1082 0001323  96.2943 263.8200 15.08833246 92380,6917.901,95.438,540.681,538.851,0.0
53985.0,STARLINK-5147,PAYLOAD,2024-06-04 11:04:34,15.08843495,0.0001428,53.2155,221.9186,92.7508,267.3647,0.00013318,1.832e-05,0.0,0 STARLINK-5147,1 53985U 22125X   24156.46151509  .00001832  00000-0  13318-3 0  9994,2 53985  53.2155 221.9186 0001428  92.7508 267.3647 15.08843495 92427,6917.87,95.437,540.723,538.747,0.0
53985.0,STARLINK-5147,PAYLOAD,2024-06-05 04:33:49,15.08839619,0.0001399,53.2151,218.6463,95.9426,264.1725,7.3292e-06,-1.71e-06,0.0,0 STARLINK-5147,1 53985U 22125X   24157.19016063 -.00000171  00000-0  73292-5 0  9995,2 53985  53.2151 218.6463 0001399  95.9426 264.1725 15.08839619 92532,6917.882,95.438,540.714,538.779,0.0
53985.0,STARLINK-5147,PAYLOAD,2024-06-05 10:55:22,15.08840797,0.0001385,53.2151,217.4565,95.9366,264.1784,1.2543e-05,-8.8e-07,0.0,0 STARLINK-5147,1 53985U 22125X   24157.45511938 -.00000088  00000-0  12543-4 0  9993,2 53985  53.2151 217.4565 0001385  95.9366 264.1784 15.08840797 92501,6917.878,95.438,540.701,538.785,0.0
53985.0,STARLINK-5147,PAYLOAD,2024-06-05 20:27:41,15.08839503,0.0001212,53.2159,215.6721,92.3461,267.767,-7.3989e-07,-3e-06,0.0,0 STARLINK-5147,1 53985U 22125X   24157.85255957 -.00000300  00000-0 -73989-6 0  9994,2 53985  53.2159 215.6721 0001212  92.3461 267.7670 15.08839503 92561,6917.882,95.438,540.585,538.908,0.0
53985.0,STARLINK-5147,PAYLOAD,2024-06-06 10:46:09,15.08833909,0.0001304,53.2164,212.9992,91.9725,268.1417,-2.2209e-05,-6.41e-06,0.0,0 STARLINK-5147,1 53985U 22125X   24158.44872637 -.00000641  00000-0 -22209-4 0  9995,2 53985  53.2164 212.9992 0001304  91.9725 268.1417 15.08833909 92723,6917.899,95.438,540.666,538.862,0.0
53985.0,STARLINK-5147,PAYLOAD,2024-06-07 09:01:33,15.08835755,0.0001388,53.2155,208.8337,99.2384,260.8765,4.0315e-05,3.54e-06,0.0,0 STARLINK-5147,1 53985U 22125X   24159.37608542  .00000354  00000-0  40315-4 0  9997,2 53985  53.2155 208.8337 0001388  99.2384 260.8765 15.08835755 92797,6917.893,95.438,540.719,538.798,0.0
53985.0,STARLINK-5147,PAYLOAD,2024-06-07 20:09:15,15.08836923,0.0001758,53.2161,206.7506,84.2061,275.9131,-6.3343e-06,-3.89e-06,0.0,0 STARLINK-5147,1 53985U 22125X   24159.83976768 -.00000389  00000-0 -63343-5 0  9993,2 53985  53.2161 206.7506 0001758  84.2061 275.9131 15.08836923 92934,6917.89,95.438,540.971,538.539,0.0
53985.0,STARLINK-5147,PAYLOAD,2024-06-08 10:27:43,15.08846773,0.000131,53.216,204.0765,83.1102,277.0039,0.00011645,1.566e-05,0.0,0 STARLINK-5147,1 53985U 22125X   24160.43591776  .00001566  00000-0  11645-3 0  9995,2 53985  53.2160 204.0765 0001310  83.1102 277.0039 15.08846773 93024,6917.86,95.437,540.631,538.818,0.0
53985.0,STARLINK-5147,PAYLOAD,2024-06-08 20:00:02,15.08843099,0.0001393,53.2153,202.2909,73.551,286.5635,7.6879e-05,9.36e-06,0.0,0 STARLINK-5147,1 53985U 22125X   24160.83336026  .00000936  00000-0  76879-4 0  9995,2 53985  53.2153 202.2909 0001393  73.5510 286.5635 15.08843099 93017,6917.871,95.437,540.7,538.772,0.0
53985.0,STARLINK-5147,PAYLOAD,2024-06-09 11:53:54,15.0882809,0.0001398,53.2165,199.3171,67.3884,292.7256,4.8763e-05,4.88e-06,0.0,0 STARLINK-5147,1 53985U 22125X   24161.49577363  .00000488  00000-0  48763-4 0  9992,2 53985  53.2165 199.3171 0001398  67.3884 292.7256 15.08828090 93187,6917.917,95.438,540.749,538.815,0.0
53985.0,STARLINK-5147,PAYLOAD,2024-06-09 19:50:49,15.08846266,0.0001291,53.2161,197.8312,86.2496,273.8644,-0.00013207,-2.39e-05,0.0,0 STARLINK-5147,1 53985U 22125X   24161.82696644 -.00002390  00000-0 -13207-3 0  9993,2 53985  53.2161 197.8312 0001291  86.2496 273.8644 15.08846266 93236,6917.861,95.437,540.619,538.833,0.0
53985.0,STARLINK-5147,PAYLOAD,2024-06-10 08:33:54,15.0884447,0.0001377,53.2163,195.4533,82.5647,277.5502,4.7154e-05,4.63e-06,0.0,0 STARLINK-5147,1 53985U 22125X   24162.35688380  .00000463  00000-0  47154-4 0  9996,2 53985  53.2163 195.4533 0001377  82.5647 277.5502 15.08844470 93249,6917.867,95.437,540.684,538.779,0.0
53985.0,STARLINK-5147,PAYLOAD,2024-06-11 05:13:55,15.08835008,0.0001332,53.2157,191.5875,78.8478,281.2664,0.00017336,2.472e-05,0.0,0 STARLINK-5147,1 53985U 22125X   24163.21800667  .00002472  00000-0  17336-3 0  9996,2 53985  53.2157 191.5875 0001332  78.8478 281.2664 15.08835008 93449,6917.896,95.438,540.682,538.839,0.0
53985.0,STARLINK-5147,PAYLOAD,2024-06-11 08:24:41,15.08838575,0.0001307,53.2156,190.9924,80.2422,279.8717,0.00020822,3.027e-05,0.0,0 STARLINK-5147,1 53985U 22125X   24163.35048482  .00003027  00000-0  20822-3 0  9991,2 53985  53.2156 190.9924 0001307  80.2422 279.8717 15.08838575 93392,6917.885,95.438,540.654,538.846,0.0
53985.0,STARLINK-5147,PAYLOAD,2024-06-12 06:40:05,15.08841508,0.0001365,53.2158,186.8281,86.2732,273.8416,3.828e-05,3.21e-06,0.0,0 STARLINK-5147,1 53985U 22125X   24164.27784675  .00000321  00000-0  38280-4 0  9996,2 53985  53.2158 186.8281 0001365  86.2732 273.8416 15.08841508 93534,6917.876,95.437,540.685,538.796,0.0
53985.0,STARLINK-5147,PAYLOAD,2024-06-12 11:26:15,15.08840569,0.0001407,53.2162,185.9369,86.07,274.0453,3.5714e-05,2.81e-06,0.0,0 STARLINK-5147,1 53985U 22125X   24164.47656673  .00000281  00000-0  35714-4 0  9998,2 53985  53.2162 185.9369 0001407  86.0700 274.0453 15.08840569 93637,6917.879,95.438,540.717,538.77,0.0
53985.0,STARLINK-5147,PAYLOAD,2024-06-13 04:55:29,15.08848651,0.0001316,53.2156,182.6651,83.4493,276.6649,7.855e-05,9.63e-06,0.0,0 STARLINK-5147,1 53985U 22125X   24165.20519739  .00000963  00000-0  78550-4 0  9993,2 53985  53.2156 182.6651 0001316  83.4493 276.6649 15.08848651 93744,6917.854,95.437,540.629,538.809,0.0
53985.0,STARLINK-5147,PAYLOAD,2024-06-13 08:06:15,15.08850297,0.0001308,53.2159,182.0706,82.7861,277.328,8.902e-05,1.13e-05,0.0,0 STARLINK-5147,1 53985U 22125X   24165.33767531  .00001130  00000-0  89020-4 0  9993,2 53985  53.2159 182.0706 0001308  82.7861 277.3280 15.08850297 93696,6917.849,95.437,540.619,538.809,0.0
53985.0,STARLINK-5147,PAYLOAD,2024-06-14 07:57:03,15.08832284,0.0001284,53.2158,177.6114,83.0658,277.048,-3.0085e-05,-7.67e-06,0.0,0 STARLINK-5147,1 53985U 22125X   24166.33129042 -.00000767  00000-0 -30085-4 0  9997,2 53985  53.2158 177.6114 0001284  83.0658 277.0480 15.08832284 93841,6917.904,95.438,540.657,538.881,0.0
53985.0,STARLINK-5147,PAYLOAD,2024-06-15 10:58:36,15.08835879,0.00013,53.2162,172.5567,84.5151,275.599,-4.337e-05,-9.78e-06,0.0,0 STARLINK-5147,1 53985U 22125X   24167.45737174 -.00000978  00000-0 -43370-4 0  9997,2 53985  53.2162 172.5567 0001300  84.5151 275.5990 15.08835879 94017,6917.893,95.438,540.657,538.859,0.0
53985.0,STARLINK-5147,PAYLOAD,2024-06-15 17:20:09,15.08834023,0.0001294,53.2164,171.3676,86.5624,273.5516,3.4107e-05,2.55e-06,0.0,0 STARLINK-5147,1 53985U 22125X   24167.72233163  .00000255  00000-0  34107-4 0  9990,2 53985  53.2164 171.3676 0001294  86.5624 273.5516 15.08834023 94052,6917.899,95.438,540.659,538.868,0.0
53985.0,STARLINK-5147,PAYLOAD,2024-06-16 07:38:37,15.08835821,0.0001253,53.2161,168.6906,91.1452,268.9684,0.00010584,1.397e-05,0.0,0 STARLINK-5147,1 53985U 22125X   24168.31849059  .00001397  00000-0  10584-3 0  9993,2 53985  53.2161 168.6906 0001253  91.1452 268.9684 15.08835821 94141,6917.893,95.438,540.625,538.891,0.0
53985.0,STARLINK-5147,PAYLOAD,2024-06-16 17:10:56,15.08835286,0.0001247,53.2159,166.9062,88.4926,271.6209,8.7495e-05,1.105e-05,0.0,0 STARLINK-5147,1 53985U 22125X   24168.71593305  .00001105  00000-0  87495-4 0  9990,2 53985  53.2159 166.9062 0001247  88.4926 271.6209 15.08835286 94206,6917.895,95.438,540.622,538.897,0.0
53985.0,STARLINK-5147,PAYLOAD,2024-06-17 17:01:43,15.08838543,0.0001281,53.2161,162.4458,88.5758,271.5381,7.6295e-05,9.27e-06,0.0,0 STARLINK-5147,1 53985U 22125X   24169.70953414  .00000927  00000-0  76295-4 0  9998,2 53985  53.2161 162.4458 0001281  88.5758 271.5381 15.08838543 94356,6917.885,95.438,540.636,538.864,0.0
53985.0,STARLINK-5147,PAYLOAD,2024-06-17 23:23:16,15.08840463,0.0001285,53.216,161.256,89.3144,270.7996,5.5326e-05,5.93e-06,0.0,0 STARLINK-5147,1 53985U 22125X   24169.97449366  .00000593  00000-0  55326-4 0  9994,2 53985  53.2160 161.2560 0001285  89.3144 270.7996 15.08840463 94467,6917.879,95.438,540.633,538.855,0.0
53985.0,STARLINK-5147,PAYLOAD,2024-06-18 08:55:34,15.08843367,0.0001281,53.2158,159.4718,89.7653,270.3486,7.1258e-05,8.46e-06,0.0,0 STARLINK-5147,1 53985U 22125X   24170.37193077  .00000846  00000-0  71258-4 0  9998,2 53985  53.2158 159.4718 0001281  89.7653 270.3486 15.08843367 94458,6917.87,95.437,540.621,538.849,0.0
53985.0,STARLINK-5147,PAYLOAD,2024-06-18 16:52:30,15.08842372,0.0001278,53.2159,157.9851,89.4273,270.6866,6.5453e-05,7.54e-06,0.0,0 STARLINK-5147,1 53985U 22125X   24170.70313079  .00000754  00000-0  65453-4 0  9999,2 53985  53.2159 157.9851 0001278  89.4273 270.6866 15.08842372 94507,6917.873,95.437,540.622,538.854,0.0
